[{"OBJECT_NAME":"STARLINK-6210","OBJECT_ID":"2023-064AP","EPOCH":"2026-03-09T13:19:56.082144","MEAN_MOTION":14.98328019,"ECCENTRICITY":0.0003351,"INCLINATION":69.9996,"RA_OF_ASC_NODE":124.6164,"ARG_OF_PERICENTER":268.0882,"MEAN_ANOMALY":91.9893,"EPHEMERIS_TYPE":0,"CLASSIFICATION_TYPE":"U","NORAD_CAT_ID":56485,"ELEMENT_SET_NO":999,"REV_AT_EPOCH":15572,"BSTAR":-4.4768e-5,"MEAN_MOTION_DOT":-6.27e-6,"MEAN_MOTION_DDOT":0},{"OBJECT_NAME":"COSMOS 2221","OBJECT_ID":"1992-080A","EPOCH":"2026-03-09T23:19:19.777152","MEAN_MOTION":14.9620142,"ECCENTRICITY":0.00140703,"INCLINATION":82.5011,"RA_OF_ASC_NODE":278.8108,"ARG_OF_PERICENTER":186.0623,"MEAN_ANOMALY":174.0431,"EPHEMERIS_TYPE":0,"CLASSIFICATION_TYPE":"U","NORAD_CAT_ID":22236,"ELEMENT_SET_NO":999,"REV_AT_EPOCH":78083,"BSTAR":0.00019500053,"MEAN_MOTION_DOT":2.227e-5,"MEAN_MOTION_DDOT":0}]
